{
  "type": "FeatureCollection",
  "features": [
    {
      "type": "Feature",
      "properties": {
        "norad_id": 50032,
        "name": "COSMOS 1408 DEB",
        "group": "cosmos-1408-debris",
        "lat": 36.93743502991287,
        "lon": 58.852820700018235,
        "alt_km": 436.07329200950153,
        "timestamp": "2025-12-17T21:39:45.958282+00:00",
        "meta_object_name": "COSMOS 1408 DEB",
        "meta_object_id": "1982-092RU",
        "meta_epoch": "2025-12-17T15:17:12.291648",
        "meta_mean_motion": 15.45742916,
        "meta_eccentricity": 0.00157122,
        "meta_inclination": 82.5644,
        "meta_ra_of_asc_node": 53.49,
        "meta_arg_of_pericenter": 190.1277,
        "meta_mean_anomaly": 169.9658,
        "meta_ephemeris_type": 0,
        "meta_classification_type": "U",
        "meta_norad_cat_id": 50032,
        "meta_element_set_no": 999,
        "meta_rev_at_epoch": 22679,
        "meta_bstar": 8.9097022e-05,
        "meta_mean_motion_dot": 4.368e-05,
        "meta_mean_motion_ddot": 0,
        "tle_line1": "1 50032U 82092RU  25351.63694782  .00004368  00000+0  89097-4 0  9999",
        "tle_line2": "2 50032  82.5644  53.4900 0015712 190.1277 169.9658 15.45742916226799"
      },
      "geometry": {
        "type": "Point",
        "coordinates": [
          58.852820700018235,
          36.93743502991287
        ]
      }
    },
    {
      "type": "Feature",
      "properties": {
        "norad_id": 50058,
        "name": "COSMOS 1408 DEB",
        "group": "cosmos-1408-debris",
        "lat": -43.13307318035575,
        "lon": -109.0812439825152,
        "alt_km": 390.34977097442516,
        "timestamp": "2025-12-17T21:39:45.958299+00:00",
        "meta_object_name": "COSMOS 1408 DEB",
        "meta_object_id": "1982-092SW",
        "meta_epoch": "2025-12-17T14:34:15.421152",
        "meta_mean_motion": 15.64394944,
        "meta_eccentricity": 0.00162208,
        "meta_inclination": 82.6132,
        "meta_ra_of_asc_node": 64.2468,
        "meta_arg_of_pericenter": 82.2196,
        "meta_mean_anomaly": 278.0904,
        "meta_ephemeris_type": 0,
        "meta_classification_type": "U",
        "meta_norad_cat_id": 50058,
        "meta_element_set_no": 999,
        "meta_rev_at_epoch": 22880,
        "meta_bstar": 0.00027404563,
        "meta_mean_motion_dot": 0.00026488,
        "meta_mean_motion_ddot": 0,
        "tle_line1": "1 50058U 82092SW  25351.60712293  .00026488  00000+0  27405-3 0  9993",
        "tle_line2": "2 50058  82.6132  64.2468 0016220  82.2196 278.0904 15.64394944228800"
      },
      "geometry": {
        "type": "Point",
        "coordinates": [
          -109.0812439825152,
          -43.13307318035575
        ]
      }
    },
    {
      "type": "Feature",
      "properties": {
        "norad_id": 50404,
        "name": "COSMOS 1408 DEB",
        "group": "cosmos-1408-debris",
        "lat": 55.949162883071224,
        "lon": 18.04712174947336,
        "alt_km": 453.42683082304757,
        "timestamp": "2025-12-17T21:39:45.958311+00:00",
        "meta_object_name": "COSMOS 1408 DEB",
        "meta_object_id": "1982-092ADS",
        "meta_epoch": "2025-12-17T14:46:14.485152",
        "meta_mean_motion": 15.14536592,
        "meta_eccentricity": 0.01700101,
        "meta_inclination": 82.2038,
        "meta_ra_of_asc_node": 210.0386,
        "meta_arg_of_pericenter": 182.1988,
        "meta_mean_anomaly": 177.852,
        "meta_ephemeris_type": 0,
        "meta_classification_type": "U",
        "meta_norad_cat_id": 50404,
        "meta_element_set_no": 999,
        "meta_rev_at_epoch": 21267,
        "meta_bstar": 0.0025473712,
        "meta_mean_motion_dot": 0.0006811,
        "meta_mean_motion_ddot": 0,
        "tle_line1": "1 50404U 82092ADS 25351.61544543  .00068110  00000+0  25474-2 0  9991",
        "tle_line2": "2 50404  82.2038 210.0386 0170010 182.1988 177.8520 15.14536592212673"
      },
      "geometry": {
        "type": "Point",
        "coordinates": [
          18.04712174947336,
          55.949162883071224
        ]
      }
    },
    {
      "type": "Feature",
      "properties": {
        "norad_id": 50621,
        "name": "COSMOS 1408 DEB",
        "group": "cosmos-1408-debris",
        "lat": 76.69937586640152,
        "lon": -144.6999170018006,
        "alt_km": 372.7730492960409,
        "timestamp": "2025-12-17T21:39:45.958321+00:00",
        "meta_object_name": "COSMOS 1408 DEB",
        "meta_object_id": "1982-092ALR",
        "meta_epoch": "2025-12-17T13:31:04.834560",
        "meta_mean_motion": 15.56911139,
        "meta_eccentricity": 0.00289802,
        "meta_inclination": 82.5704,
        "meta_ra_of_asc_node": 69.1587,
        "meta_arg_of_pericenter": 134.8097,
        "meta_mean_anomaly": 225.5522,
        "meta_ephemeris_type": 0,
        "meta_classification_type": "U",
        "meta_norad_cat_id": 50621,
        "meta_element_set_no": 999,
        "meta_rev_at_epoch": 22325,
        "meta_bstar": 0.00030465128,
        "meta_mean_motion_dot": 0.00022403,
        "meta_mean_motion_ddot": 0,
        "tle_line1": "1 50621U 82092ALR 25351.56325040  .00022403  00000+0  30465-3 0  9997",
        "tle_line2": "2 50621  82.5704  69.1587 0028980 134.8097 225.5522 15.56911139223255"
      },
      "geometry": {
        "type": "Point",
        "coordinates": [
          -144.6999170018006,
          76.69937586640152
        ]
      }
    }
  ]
}